{"type": "FeatureCollection", "features": [ {"type": "Feature", "properties": {"norad_id": 31477, "name": "FENGYUN 1C DEB", "group": "fengyun-1c-debris", "lat": -49.6720510052339, "lon": -11.23823483538062, "alt_km": 868.2853648703685, "timestamp": "2025-12-14T11:29:50.343022+00:00", "meta": {"OBJECT_NAME": "FENGYUN 1C DEB", "OBJECT_ID": "1999-025BVR", "EPOCH": "2025-12-13T10:03:34.836480", "MEAN_MOTION": 14.02923625, "ECCENTRICITY": 0.0110129, "INCLINATION": 98.8856, "RA_OF_ASC_NODE": 337.108, "ARG_OF_PERICENTER": 27.003, "MEAN_ANOMALY": 333.6809, "EPHEMERIS_TYPE": 0, "CLASSIFICATION_TYPE": "U", "NORAD_CAT_ID": 31477, "ELEMENT_SET_NO": 999, "REV_AT_EPOCH": 95413, "BSTAR": 0.00040349697, "MEAN_MOTION_DOT": 6.17e-06, "MEAN_MOTION_DDOT": 0}, "tle": {"line1": "1 31477U 99025BVR 25347.41915320  .00000617  00000+0  40350-3 0  9991", "line2": "2 31477  98.8856 337.1080 0110129  27.0030 333.6809 14.02923625954134"}}, "geometry": {"type": "Point", "coordinates": [-11.23823483538062, -49.6720510052339]}}, {"type": "Feature", "properties": {"norad_id": 31480, "name": "FENGYUN 1C DEB", "group": "fengyun-1c-debris", "lat": -75.28131113145733, "lon": -14.467569515641374, "alt_km": 742.8789797432737, "timestamp": "2025-12-14T11:29:50.343033+00:00", "meta": {"OBJECT_NAME": "FENGYUN 1C DEB", "OBJECT_ID": "1999-025BVU", "EPOCH": "2025-12-12T20:15:06.987168", "MEAN_MOTION": 13.89927681, "ECCENTRICITY": 0.03449479, "INCLINATION": 98.3381, "RA_OF_ASC_NODE": 197.9993, "ARG_OF_PERICENTER": 221.1045, "MEAN_ANOMALY": 136.366, "EPHEMERIS_TYPE": 0, "CLASSIFICATION_TYPE": "U", "NORAD_CAT_ID": 31480, "ELEMENT_SET_NO": 999, "REV_AT_EPOCH": 93397, "BSTAR": 0.0042992776, "MEAN_MOTION_DOT": 8.525e-05, "MEAN_MOTION_DDOT": 0}, "tle": {"line1": "1 31480U 99025BVU 25346.84383087  .00008525  00000+0  42993-2 0  9990", "line2": "2 31480  98.3381 197.9993 0344947 221.1045 136.3660 13.89927681933973"}}, "geometry": {"type": "Point", "coordinates": [-14.467569515641374, -75.28131113145733]}}, {"type": "Feature", "properties": {"norad_id": 31482, "name": "FENGYUN 1C DEB", "group": "fengyun-1c-debris", "lat": -66.23428470513612, "lon": 152.72175849492587, "alt_km": 724.6293714125668, "timestamp": "2025-12-14T11:29:50.343043+00:00", "meta": {"OBJECT_NAME": "FENGYUN 1C DEB", "OBJECT_ID": "1999-025BVW", "EPOCH": "2025-12-12T23:21:12.502368", "MEAN_MOTION": 14.35659619, "ECCENTRICITY": 0.00887891, "INCLINATION": 98.383, "RA_OF_ASC_NODE": 350.8229, "ARG_OF_PERICENTER": 281.569, "MEAN_ANOMALY": 107.4882, "EPHEMERIS_TYPE": 0, "CLASSIFICATION_TYPE": "U", "NORAD_CAT_ID": 31482, "ELEMENT_SET_NO": 999, "REV_AT_EPOCH": 97133, "BSTAR": 0.0011348835, "MEAN_MOTION_DOT": 3.382e-05, "MEAN_MOTION_DDOT": 0}, "tle": {"line1": "1 31482U 99025BVW 25346.97306137  .00003382  00000+0  11349-2 0  9994", "line2": "2 31482  98.3830 350.8229 0088789 281.5690 107.4882 14.35659619971333"}}, "geometry": {"type": "Point", "coordinates": [152.72175849492587, -66.23428470513612]}}, {"type": "Feature", "properties": {"norad_id": 31483, "name": "FENGYUN 1C DEB", "group": "fengyun-1c-debris", "lat": -22.74938095908028, "lon": -55.21891219996849, "alt_km": 885.9028777393814, "timestamp": "2025-12-14T11:29:50.343053+00:00", "meta": {"OBJECT_NAME": "FENGYUN 1C DEB", "OBJECT_ID": "1999-025BVX", "EPOCH": "2025-12-13T03:27:29.793312", "MEAN_MOTION": 14.16044237, "ECCENTRICITY": 0.01184957, "INCLINATION": 102.5013, "RA_OF_ASC_NODE": 297.5767, "ARG_OF_PERICENTER": 220.0582, "MEAN_ANOMALY": 153.4811, "EPHEMERIS_TYPE": 0, "CLASSIFICATION_TYPE": "U", "NORAD_CAT_ID": 31483, "ELEMENT_SET_NO": 999, "REV_AT_EPOCH": 94712, "BSTAR": 0.0042050754, "MEAN_MOTION_DOT": 8.826e-05, "MEAN_MOTION_DDOT": 0}, "tle": {"line1": "1 31483U 99025BVX 25347.14409483  .00008826  00000+0  42051-2 0  9995", "line2": "2 31483 102.5013 297.5767 0118495 220.0582 153.4811 14.16044237947121"}}, "geometry": {"type": "Point", "coordinates": [-55.21891219996849, -22.74938095908028]}}, {"type": "Feature", "properties": {"norad_id": 31484, "name": "FENGYUN 1C DEB", "group": "fengyun-1c-debris", "lat": -33.97837703259793, "lon": 97.4570892580221, "alt_km": 707.0258520103116, "timestamp": "2025-12-14T11:29:50.343063+00:00", "meta": {"OBJECT_NAME": "FENGYUN 1C DEB", "OBJECT_ID": "1999-025BVY", "EPOCH": "2025-12-12T13:49:03.741600", "MEAN_MOTION": 14.50402466, "ECCENTRICITY": 0.00829237, "INCLINATION": 101.8042, "RA_OF_ASC_NODE": 282.9003, "ARG_OF_PERICENTER": 152.4488, "MEAN_ANOMALY": 208.1125, "EPHEMERIS_TYPE": 0, "CLASSIFICATION_TYPE": "U", "NORAD_CAT_ID": 31484, "ELEMENT_SET_NO": 999, "REV_AT_EPOCH": 64235, "BSTAR": 0.0066347373, "MEAN_MOTION_DOT": 0.00027123, "MEAN_MOTION_DDOT": 0}, "tle": {"line1": "1 31484U 99025BVY 25346.57573775  .00027123  00000+0  66347-2 0  9993", "line2": "2 31484 101.8042 282.9003 0082923 152.4488 208.1125 14.50402466642359"}}, "geometry": {"type": "Point", "coordinates": [97.4570892580221, -33.97837703259793]}}, {"type": "Feature", "properties": {"norad_id": 31485, "name": "FENGYUN 1C DEB", "group": "fengyun-1c-debris", "lat": -23.604176616017043, "lon": -178.18275217557294, "alt_km": 800.257373702314, "timestamp": "2025-12-14T11:29:50.343073+00:00", "meta": {"OBJECT_NAME": "FENGYUN 1C DEB", "OBJECT_ID": "1999-025BVZ", "EPOCH": "2025-12-10T10:51:19.342080", "MEAN_MOTION": 13.40027738, "ECCENTRICITY": 0.04458594, "INCLINATION": 102.7187, "RA_OF_ASC_NODE": 171.1002, "ARG_OF_PERICENTER": 323.8485, "MEAN_ANOMALY": 33.3238, "EPHEMERIS_TYPE": 0, "CLASSIFICATION_TYPE": "U", "NORAD_CAT_ID": 31485, "ELEMENT_SET_NO": 999, "REV_AT_EPOCH": 90414, "BSTAR": 0.0039196395, "MEAN_MOTION_DOT": 3.758e-05, "MEAN_MOTION_DDOT": 0}, "tle": {"line1": "1 31485U 99025BVZ 25344.45230720  .00003758  00000+0  39196-2 0  9999", "line2": "2 31485 102.7187 171.1002 0445859 323.8485  33.3238 13.40027738904144"}}, "geometry": {"type": "Point", "coordinates": [-178.18275217557294, -23.604176616017043]}}, {"type": "Feature", "properties": {"norad_id": 31487, "name": "FENGYUN 1C DEB", "group": "fengyun-1c-debris", "lat": 76.91335021202099, "lon": 48.89476189184178, "alt_km": 971.321662621509, "timestamp": "2025-12-14T11:29:50.343084+00:00", "meta": {"OBJECT_NAME": "FENGYUN 1C DEB", "OBJECT_ID": "1999-025BWB", "EPOCH": "2025-12-09T17:44:32.604000", "MEAN_MOTION": 13.97711956, "ECCENTRICITY": 0.01202997, "INCLINATION": 102.4139, "RA_OF_ASC_NODE": 151.1598, "ARG_OF_PERICENTER": 313.5334, "MEAN_ANOMALY": 61.6285, "EPHEMERIS_TYPE": 0, "CLASSIFICATION_TYPE": "U", "NORAD_CAT_ID": 31487, "ELEMENT_SET_NO": 999, "REV_AT_EPOCH": 94370, "BSTAR": 0.0022584983, "MEAN_MOTION_DOT": 3.321e-05, "MEAN_MOTION_DDOT": 0}, "tle": {"line1": "1 31487U 99025BWB 25343.73926625  .00003321  00000+0  22585-2 0  9997", "line2": "2 31487 102.4139 151.1598 0120299 313.5334  61.6285 13.97711956943700"}}, "geometry": {"type": "Point", "coordinates": [48.89476189184178, 76.91335021202099]}}, {"type": "Feature", "properties": {"norad_id": 31491, "name": "FENGYUN 1C DEB", "group": "fengyun-1c-debris", "lat": 54.53715118783356, "lon": -116.14166003701776, "alt_km": 862.2793007409118, "timestamp": "2025-12-14T11:29:50.343094+00:00", "meta": {"OBJECT_NAME": "FENGYUN 1C DEB", "OBJECT_ID": "1999-025BWE", "EPOCH": "2025-12-13T04:44:11.383872", "MEAN_MOTION": 14.17269112, "ECCENTRICITY": 0.00518484, "INCLINATION": 99.3043, "RA_OF_ASC_NODE": 255.8234, "ARG_OF_PERICENTER": 267.3751, "MEAN_ANOMALY": 92.1487, "EPHEMERIS_TYPE": 0, "CLASSIFICATION_TYPE": "U", "NORAD_CAT_ID": 31491, "ELEMENT_SET_NO": 999, "REV_AT_EPOCH": 63734, "BSTAR": 0.0029952157, "MEAN_MOTION_DOT": 6.086e-05, "MEAN_MOTION_DDOT": 0}, "tle": {"line1": "1 31491U 99025BWE 25347.19735398  .00006086  00000+0  29952-2 0  9997", "line2": "2 31491  99.3043 255.8234 0051848 267.3751  92.1487 14.17269112637342"}}, "geometry": {"type": "Point", "coordinates": [-116.14166003701776, 54.53715118783356]}}, {"type": "Feature", "properties": {"norad_id": 31492, "name": "FENGYUN 1C DEB", "group": "fengyun-1c-debris", "lat": -75.46518543495964, "lon": -168.38290093839575, "alt_km": 658.7814816863138, "timestamp": "2025-12-14T11:29:50.343103+00:00", "meta": {"OBJECT_NAME": "FENGYUN 1C DEB", "OBJECT_ID": "1999-025BWF", "EPOCH": "2025-12-13T09:43:40.259712", "MEAN_MOTION": 14.70813595, "ECCENTRICITY": 0.00645282, "INCLINATION": 98.8565, "RA_OF_ASC_NODE": 153.4808, "ARG_OF_PERICENTER": 6.7668, "MEAN_ANOMALY": 353.4392, "EPHEMERIS_TYPE": 0, "CLASSIFICATION_TYPE": "U", "NORAD_CAT_ID": 31492, "ELEMENT_SET_NO": 999, "REV_AT_EPOCH": 96516, "BSTAR": 0.0056827225, "MEAN_MOTION_DOT": 0.00035971, "MEAN_MOTION_DDOT": 0}, "tle": {"line1": "1 31492U 99025BWF 25347.40532708  .00035971  00000+0  56827-2 0  9998", "line2": "2 31492  98.8565 153.4808 0064528   6.7668 353.4392 14.70813595965168"}}, "geometry": {"type": "Point", "coordinates": [-168.38290093839575, -75.46518543495964]}}, {"type": "Feature", "properties": {"norad_id": 31493, "name": "FENGYUN 1C DEB", "group": "fengyun-1c-debris", "lat": 69.15534671129335, "lon": 142.5587031110616, "alt_km": 871.6080983688989, "timestamp": "2025-12-14T11:29:50.343113+00:00", "meta": {"OBJECT_NAME": "FENGYUN 1C DEB", "OBJECT_ID": "1999-025BWG", "EPOCH": "2025-12-12T02:05:14.361792", "MEAN_MOTION": 13.92967952, "ECCENTRICITY": 0.01169776, "INCLINATION": 100.136, "RA_OF_ASC_NODE": 291.9196, "ARG_OF_PERICENTER": 177.3499, "MEAN_ANOMALY": 182.8302, "EPHEMERIS_TYPE": 0, "CLASSIFICATION_TYPE": "U", "NORAD_CAT_ID": 31493, "ELEMENT_SET_NO": 999, "REV_AT_EPOCH": 59857, "BSTAR": 0.0010865995, "MEAN_MOTION_DOT": 1.441e-05, "MEAN_MOTION_DDOT": 0}, "tle": {"line1": "1 31493U 99025BWG 25346.08697178  .00001441  00000+0  10866-2 0  9993", "line2": "2 31493 100.1360 291.9196 0116977 177.3499 182.8302 13.92967952598572"}}, "geometry": {"type": "Point", "coordinates": [142.5587031110616, 69.15534671129335]}}]}